[{"OBJECT_NAME":"CAPELLA-11 (ACADIA-1)","OBJECT_ID":"2023-126A","EPOCH":"2026-03-09T22:58:53.466528","MEAN_MOTION":14.80465178,"ECCENTRICITY":0.00027448,"INCLINATION":53.0065,"RA_OF_ASC_NODE":254.028,"ARG_OF_PERICENTER":128.81,"MEAN_ANOMALY":231.3123,"EPHEMERIS_TYPE":0,"CLASSIFICATION_TYPE":"U","NORAD_CAT_ID":57693,"ELEMENT_SET_NO":999,"REV_AT_EPOCH":13741,"BSTAR":0.00045921868,"MEAN_MOTION_DOT":3.323e-5,"MEAN_MOTION_DDOT":0},{"OBJECT_NAME":"KUIPER-00079","OBJECT_ID":"2025-151L","EPOCH":"2026-03-09T19:51:29.525184","MEAN_MOTION":14.79928203,"ECCENTRICITY":8.516e-5,"INCLINATION":51.8985,"RA_OF_ASC_NODE":299.9538,"ARG_OF_PERICENTER":76.9433,"MEAN_ANOMALY":283.1624,"EPHEMERIS_TYPE":0,"CLASSIFICATION_TYPE":"U","NORAD_CAT_ID":64826,"ELEMENT_SET_NO":999,"REV_AT_EPOCH":3652,"BSTAR":-2.9016916e-5,"MEAN_MOTION_DOT":-4.42e-6,"MEAN_MOTION_DDOT":0}]
