CAPELLA-11 (ACADIA-1)   
1 57693U 23126A   26068.95756326  .00003323  00000+0  45922-3 0  9994
2 57693  53.0065 254.0280 0002745 128.8100 231.3123 14.80465178137415
KUIPER-00079            
1 64826U 25151L   26068.82742506 -.00000442  00000+0 -29017-4 0  9990
2 64826  51.8985 299.9538 0000851  76.9433 283.1624 14.79928203 36522
